{
  "type": "FeatureCollection",
  "features": [
    {
      "type": "Feature",
      "properties": {
        "norad_id": 54259,
        "name": "EUTELSAT 10B",
        "group": "eutelsat",
        "lat": 0.0055489943949879085,
        "lon": -116.75825539606188,
        "alt_km": 35787.487738690936,
        "timestamp": "2025-12-20T09:36:01.303496+00:00",
        "meta_object_name": "EUTELSAT 10B",
        "meta_object_id": "2022-157A",
        "meta_epoch": "2025-12-20T03:00:22.362912",
        "meta_mean_motion": 1.00274144,
        "meta_eccentricity": 6.75e-05,
        "meta_inclination": 0.0606,
        "meta_ra_of_asc_node": 97.5404,
        "meta_arg_of_pericenter": 8.9249,
        "meta_mean_anomaly": 37.5953,
        "meta_ephemeris_type": 0,
        "meta_classification_type": "U",
        "meta_norad_cat_id": 54259,
        "meta_element_set_no": 999,
        "meta_rev_at_epoch": 1123,
        "meta_bstar": 0,
        "meta_mean_motion_dot": 9.3e-07,
        "meta_mean_motion_ddot": 0,
        "tle_line1": "1 54259U 22157A   25354.12525883  .00000093  00000+0  00000+0 0  9995",
        "tle_line2": "2 54259   0.0606  97.5404 0000675   8.9249  37.5953  1.00274144 11230"
      },
      "geometry": {
        "type": "Point",
        "coordinates": [
          -116.75825539606188,
          0.0055489943949879085
        ]
      }
    },
    {
      "type": "Feature",
      "properties": {
        "norad_id": 59346,
        "name": "EUTELSAT 36D",
        "group": "eutelsat",
        "lat": -0.04971575194602875,
        "lon": -90.93772825951562,
        "alt_km": 35786.75719302881,
        "timestamp": "2025-12-20T09:36:01.303508+00:00",
        "meta_object_name": "EUTELSAT 36D",
        "meta_object_id": "2024-059A",
        "meta_epoch": "2025-12-19T19:44:38.802912",
        "meta_mean_motion": 1.00270892,
        "meta_eccentricity": 7.164e-05,
        "meta_inclination": 0.0256,
        "meta_ra_of_asc_node": 21.4578,
        "meta_arg_of_pericenter": 346.9459,
        "meta_mean_anomaly": 52.265,
        "meta_ephemeris_type": 0,
        "meta_classification_type": "U",
        "meta_norad_cat_id": 59346,
        "meta_element_set_no": 999,
        "meta_rev_at_epoch": 634,
        "meta_bstar": 0,
        "meta_mean_motion_dot": 0,
        "meta_mean_motion_ddot": 0,
        "tle_line1": "1 59346U 24059A   25353.82267133  .00000000  00000+0  00000+0 0  9995",
        "tle_line2": "2 59346   0.0256  21.4578 0000716 346.9459  52.2650  1.00270892  6345"
      },
      "geometry": {
        "type": "Point",
        "coordinates": [
          -90.93772825951562,
          -0.04971575194602875
        ]
      }
    }
  ]
}